NOAA 20                 
1 43013U 17073A   21324.23624893  .00000013  00000-0  27081-4 0  9994
2 43013  98.7350 260.5901 0000791  78.3977 281.7288 14.19561518207541
